#dP2018 10 11  0  0  0.00000000      96 __u+U ITR00 FIT  IAC
## 2022 345600.00000000   900.00000000 58402 0.0000000000000
+   91   C01C02C03C04C05C06C07C08C09C10C11C12C13C14E01E02E03
+        E04E05E07E08E09E11E12E14E18E19E21E24E25E26E27E30G01
+        G02G03G05G06G07G08G09G10G11G12G13G14G15G16G17G18G19
+        G20G21G22G23G24G25G26G27G28G29G30G31G32J01J02J03J07
+        R01R02R03R04R05R07R08R09R10R11R13R14R15R16R17R18R19
+        R20R21R22R23R24R26  0  0  0  0  0  0  0  0  0  0  0
++         0  0  0  0  0  0  0  0  0  0  0  0  0  0  0  0  0
++         0  0  0  0  0  0  0  0  0  0  0  0  0  0  0  0  0
++         0  0  0  0  0  0  0  0  0  0  0  0  0  0  0  0  0
++         0  0  0  0  0  0  0  0  0  0  0  0  0  0  0  0  0
++         0  0  0  0  0  0  0  0  0  0  0  0  0  0  0  0  0
++         0  0  0  0  0  0  0  0  0  0  0  0  0  0  0  0  0
%c M  cc GPS ccc cccc cccc cccc cccc ccccc ccccc ccccc ccccc
%c cc cc ccc ccc cccc cccc cccc cccc ccccc ccccc ccccc ccccc
%f  0.0000000  0.000000000  0.00000000000  0.000000000000000
%f  0.0000000  0.000000000  0.00000000000  0.000000000000000
%i    0    0    0    0      0      0      0      0         0
%i    0    0    0    0      0      0      0      0         0
/*                                                          
/*   RSA / INFORMATION & ANALYSIS CENTER (IAC) OF MCC       
/*   ULTRA-RAPID DETERMINATION                              
/* PCV:IGS14_2000 OL/AL:FES2004  NONE     YN ORB:CoN CLK:CoN
*  2018 10 11  3  0  0.00000000
PC01 -32321.180741  27047.716837   -274.220637     58.415501
PC02   4479.080144  41931.676734    876.401891    -16.877428
PC03 -14774.345614  39522.794232     88.727029   -276.192619
PC04 -39619.915291  14337.158087    -48.893934    -81.937542
PC05      0.000000      0.000000      0.000000 999999.999999
PC06 -22212.148957  35935.664538  -2577.100283    369.566659
PC07  -7628.265916  30431.694667 -27819.683508    -88.217302
PC08 -19942.767313  18620.390256  32120.388757    558.528651
PC09 -10769.603329  36461.852736 -18398.334946    188.002450
PC10   4292.960601  37165.558575 -18921.486365   -143.658308
PC11  21563.695865   2292.486638  17668.164885     56.538242
PC12   4381.786029  15004.662047  23167.058658    143.796378
PC13  -1786.150367  23418.160932  35032.572101   -319.779751
PC14  14161.059559  11883.649269 -20865.933626    576.448478
PE01  21132.955029  18193.749430   9923.223937   -453.463855
PE02 -21135.785574 -18180.466137  -9937.368903     30.725921
PE03 -14299.909771  -9766.440077  24007.244045    -86.854665
PE04  19821.474314 -11478.870935 -18747.313053   -135.189580
PE05   -375.290054 -25383.917740  15224.742378    179.058201
PE07 -13729.714548  26103.419594   2442.237090    -54.244401
PE08 -19612.331344  11727.180811  18809.100294   6485.441194
PE09  13486.630495 -26244.945015  -2453.575786   6651.433052
PE11  15724.670386 -15187.072091 -19960.051968   5694.176540
PE12  28863.687494  -5541.322749  -3481.693358   5245.166847
PE14  20679.022724 -16264.706933    802.504406   6506.543162
PE18 -26749.487451   7829.800211 -12857.116929   5841.859736
PE19  13115.345119  11645.350267 -23842.986419    -11.510701
PE21  10987.870204  25782.617375  -9502.506973   -498.890557
PE24   5119.145004 -18425.426792  22588.848508   6447.891217
PE25 -10962.267081 -25796.170521   9546.771180   2016.895423
PE26   6131.031017  15811.698849  24261.377886   5378.802075
PE27  -5550.747561  17922.412525 -22881.240438    613.583621
PE30 -18571.296398    142.889298 -23048.033607   5442.912836
PG01 -20241.113284 -13846.841910 -10737.720305    -98.893564
PG02   -171.524537  15949.129884  21834.267763    -26.560137
PG03 -13397.980635 -19339.815792  12355.043439    147.416502
PG05   2614.835931  25716.466607   5489.043691     -1.094011
PG06 -16395.343784   8680.461799  19044.668083    351.429282
PG07 -25933.947825  -5690.357707  -3480.482421    108.912067
PG08  -2199.618821 -17063.529914 -20142.849155   -118.165289
PG09 -19059.877885    184.245700  18462.483252    501.258442
PG10  12727.111148  -9903.670385 -21032.465650    175.631226
PG11 -16127.325236 -11880.907685 -17898.897122   -710.954723
PG12   9656.204526  23248.979172   8554.454367    300.671302
PG13  -6610.767965  19384.892401 -17009.724522    -87.338077
PG14  17963.472842 -18875.460631   4931.603458    -96.796295
PG15   7912.522618  14608.126172 -20895.513051   -343.432402
PG16   1183.590461 -25220.714045   7355.821060      4.826717
PG17 -21653.262836  14462.350325  -4490.226146    -45.612882
PG18 -12018.672095 -16170.259780 -17860.586385     66.908787
PG19 -18670.121585  18329.395008   4645.348649   -394.684918
PG20  16644.737912    267.003442 -20836.366071    517.109171
PG21  25592.218674   1819.090052  -5938.745043   -323.251439
PG22 -11270.874216 -23546.394663   5224.670893   -543.460945
PG23 -13820.938668  -8253.609965  21472.534791   -208.975431
PG24  16972.350886  14988.664368 -14248.118265    -56.597607
PG25  15301.226951  12352.913480  17780.572079   -659.932791
PG26   6524.105989 -20106.811236  15988.016184      5.724277
PG27   8154.164271 -20857.340957 -14156.014265     -3.811509
PG28 -13326.078563   6827.173025 -21322.423437    749.103431
PG29  18239.097325   1435.782550  19230.947667    359.426385
PG30 -22769.150675   2408.249797 -13584.993510     11.934370
PG31  14725.238776  -9781.185479  19980.214080     87.594056
PG32  20757.435333 -16001.488546  -3945.544802   -396.885766
PJ01 -24772.350038  29221.520659  22599.665319   -316.542158
PJ02 -23805.662897  16177.155037 -26501.198989      0.173250
PJ03 -27708.407365  31851.736181   2647.265889      0.242730
PJ07 -25389.930974  33653.636179     14.399502    148.343823
PR01  -3076.119694  24825.089251  -4954.441711     33.279995
PR02   6878.000269  13241.210756 -20669.873085    333.883070
PR03  11994.815521  -5557.537550 -21771.712797    145.610145
PR04   9849.767250 -21391.453544  -9769.882702    279.465912
PR05   2285.982611 -24372.397772   7141.790653     12.779422
PR07 -12073.546897   6090.774631  21665.819882    -49.044163
PR08 -10141.742357  20949.036345  10491.184067     20.974035
PR09 -19165.848233 -16687.168362  -2587.545635     32.831012
PR10 -17719.810730  -6002.625357 -17395.525115     33.293852
PR11  -6044.769246   9425.583564 -22894.217196    -43.527170
PR13  19228.224963  16635.901183   1971.653705    -15.550278
PR14  17862.366955   5737.799208  17292.437666     31.858250
PR15   9503.995505  -5606.110520  23019.035714    -17.517600
PR16  -8593.313422 -18135.052882  15664.011282    103.662123
PR17  24494.578302  -4426.355065   5687.065795    171.242828
PR18  19966.475205 -11151.642872 -11234.851885     25.920408
PR19   4721.446616 -11637.666972 -22206.493578    -60.492506
PR20 -15050.464261  -5243.086990 -19925.729841   -355.194950
PR21 -24502.912622   4671.780673  -5251.173670     -8.205445
PR22 -18572.998776  11571.116816  13208.877809    -64.982307
PR23    240.701422  10812.602448  23091.095736    183.613438
PR24  16167.091367   4379.777068  19208.944632   -172.408134
PR26 -13810.101442  -5725.145424 -20648.825671     23.538573
EOF
